start=new Date('2022-12-18T00:00:00.000Z').valueOf();
sats=[{"PERIOD":"95.593","REF_FRAME":"TEME","OBJECT_TYPE":"PAYLOAD","EPOCH":"2022-12-17T18:12:51.012000","SITE":"AFETR","DECAY_DATE":null,"REV_AT_EPOCH":"13149","CENTER_NAME":"EARTH","CLASSIFICATION_TYPE":"U","INCLINATION":"53.0566","OBJECT_ID":"2020-055AE","EPHEMERIS_TYPE":"0","FILE":"3707070","TLE_LINE1":"1 46055U 20055AE  22351.75892375 -.00001122  00000-0 -56422-4 0  9992","MEAN_MOTION_DOT":"-0.00001122","RCS_SIZE":"LARGE","OBJECT_NAME":"STARLINK-1554","MEAN_ELEMENT_THEORY":"SGP4","MEAN_MOTION_DDOT":"0.0000000000000","NORAD_CAT_ID":"46055","APOAPSIS":"548.497","SEMIMAJOR_AXIS":"6925.380","LAUNCH_DATE":"2020-08-07","BSTAR":"-0.00005642200000","MEAN_ANOMALY":"303.5942","TLE_LINE2":"2 46055  53.0566   4.5450 0001807  56.5219 303.5942 15.06389692131492","MEAN_MOTION":"15.06389692","ARG_OF_PERICENTER":"56.5219","GP_ID":"220754636","COUNTRY_CODE":"US","ELEMENT_SET_NO":"999","ECCENTRICITY":"0.00018070","TIME_SYSTEM":"UTC","RA_OF_ASC_NODE":"4.5450","PERIAPSIS":"545.994"},{"SEMIMAJOR_AXIS":"6925.360","BSTAR":"0.00009744300000","LAUNCH_DATE":"2020-08-07","APOAPSIS":"548.473","MEAN_MOTION_DDOT":"0.0000000000000","NORAD_CAT_ID":"46056","MEAN_ELEMENT_THEORY":"SGP4","OBJECT_NAME":"STARLINK-1561","TLE_LINE1":"1 46056U 20055AF  22351.78008454  .00001170  00000-0  97443-4 0  9992","MEAN_MOTION_DOT":"0.00001170","RCS_SIZE":"LARGE","EPHEMERIS_TYPE":"0","FILE":"3707070","OBJECT_ID":"2020-055AF","INCLINATION":"53.0554","DECAY_DATE":null,"CLASSIFICATION_TYPE":"U","REV_AT_EPOCH":"13150","CENTER_NAME":"EARTH","SITE":"AFETR","EPOCH":"2022-12-17T18:43:19.304256","PERIOD":"95.592","REF_FRAME":"TEME","OBJECT_TYPE":"PAYLOAD","PERIAPSIS":"545.977","RA_OF_ASC_NODE":"4.4633","TIME_SYSTEM":"UTC","ECCENTRICITY":"0.00018020","ELEMENT_SET_NO":"999","COUNTRY_CODE":"US","GP_ID":"220754887","TLE_LINE2":"2 46056  53.0554   4.4633 0001802  45.4791 314.6345 15.06396259131508","MEAN_MOTION":"15.06396259","ARG_OF_PERICENTER":"45.4791","MEAN_ANOMALY":"314.6345"},{"RCS_SIZE":"LARGE","MEAN_MOTION_DOT":"0.00000258","TLE_LINE1":"1 46058U 20055AH  22351.46035617  .00000258  00000-0  36209-4 0  9999","OBJECT_NAME":"STARLINK-1564","FILE":"3705911","EPHEMERIS_TYPE":"0","APOAPSIS":"548.389","LAUNCH_DATE":"2020-08-07","BSTAR":"0.00003620900000","SEMIMAJOR_AXIS":"6925.363","MEAN_ELEMENT_THEORY":"SGP4","NORAD_CAT_ID":"46058","MEAN_MOTION_DDOT":"0.0000000000000","OBJECT_TYPE":"PAYLOAD","REF_FRAME":"TEME","PERIOD":"95.592","EPOCH":"2022-12-17T11:02:54.773088","INCLINATION":"53.0575","OBJECT_ID":"2020-055AH","SITE":"AFETR","DECAY_DATE":null,"CLASSIFICATION_TYPE":"U","REV_AT_EPOCH":"13144","CENTER_NAME":"EARTH","ECCENTRICITY":"0.00016770","RA_OF_ASC_NODE":"5.9030","PERIAPSIS":"546.067","TIME_SYSTEM":"UTC","ARG_OF_PERICENTER":"48.6244","TLE_LINE2":"2 46058  53.0575   5.9030 0001677  48.6244 311.4889 15.06395263131443","MEAN_MOTION":"15.06395263","MEAN_ANOMALY":"311.4889","ELEMENT_SET_NO":"999","GP_ID":"220702476","COUNTRY_CODE":"US"},{"OBJECT_ID":"2020-055AJ","INCLINATION":"53.0556","REV_AT_EPOCH":"13144","DECAY_DATE":null,"CENTER_NAME":"EARTH","CLASSIFICATION_TYPE":"U","SITE":"AFETR","EPOCH":"2022-12-17T17:35:41.116992","REF_FRAME":"TEME","OBJECT_TYPE":"PAYLOAD","PERIOD":"95.592","LAUNCH_DATE":"2020-08-07","BSTAR":"0.00007353100000","SEMIMAJOR_AXIS":"6925.363","APOAPSIS":"548.406","NORAD_CAT_ID":"46059","MEAN_MOTION_DDOT":"0.0000000000000","MEAN_ELEMENT_THEORY":"SGP4","OBJECT_NAME":"STARLINK-1570","RCS_SIZE":"LARGE","TLE_LINE1":"1 46059U 20055AJ  22351.73311478  .00000814  00000-0  73531-4 0  9999","MEAN_MOTION_DOT":"0.00000814","FILE":"3707070","EPHEMERIS_TYPE":"0","ELEMENT_SET_NO":"999","COUNTRY_CODE":"US","GP_ID":"220753885","ARG_OF_PERICENTER":"47.2333","TLE_LINE2":"2 46059  53.0556   4.6822 0001701  47.2333 312.8799 15.06395254131445","MEAN_MOTION":"15.06395254","MEAN_ANOMALY":"312.8799","PERIAPSIS":"546.050","RA_OF_ASC_NODE":"4.6822","TIME_SYSTEM":"UTC","ECCENTRICITY":"0.00017010"},{"ARG_OF_PERICENTER":"46.0938","MEAN_MOTION":"15.06396756","TLE_LINE2":"2 46060  53.0549   5.8849 0001846  46.0938 314.0203 15.06396756131418","MEAN_ANOMALY":"314.0203","ELEMENT_SET_NO":"999","GP_ID":"220702973","COUNTRY_CODE":"US","ECCENTRICITY":"0.00018460","RA_OF_ASC_NODE":"5.8849","PERIAPSIS":"545.945","TIME_SYSTEM":"UTC","REF_FRAME":"TEME","OBJECT_TYPE":"PAYLOAD","PERIOD":"95.592","EPOCH":"2022-12-17T11:08:13.405056","INCLINATION":"53.0549","OBJECT_ID":"2020-055AK","SITE":"AFETR","REV_AT_EPOCH":"13141","DECAY_DATE":null,"CLASSIFICATION_TYPE":"U","CENTER_NAME":"EARTH","RCS_SIZE":"LARGE","MEAN_MOTION_DOT":"0.00000701","TLE_LINE1":"1 46060U 20055AK  22351.46404404  .00000701  00000-0  65966-4 0  9991","OBJECT_NAME":"STARLINK-1572","FILE":"3705911","EPHEMERIS_TYPE":"0","APOAPSIS":"548.502","BSTAR":"0.00006596600000","LAUNCH_DATE":"2020-08-07","SEMIMAJOR_AXIS":"6925.359","MEAN_ELEMENT_THEORY":"SGP4","NORAD_CAT_ID":"46060","MEAN_MOTION_DDOT":"0.0000000000000"},{"MEAN_ELEMENT_THEORY":"SGP4","NORAD_CAT_ID":"46061","MEAN_MOTION_DDOT":"0.0000000000000","APOAPSIS":"548.694","LAUNCH_DATE":"2020-08-07","BSTAR":"-0.00009424000000","SEMIMAJOR_AXIS":"6925.400","FILE":"3707070","EPHEMERIS_TYPE":"0","RCS_SIZE":"LARGE","TLE_LINE1":"1 46061U 20055AL  22351.52302669 -.00001685  00000-0 -94240-4 0  9990","MEAN_MOTION_DOT":"-0.00001685","OBJECT_NAME":"STARLINK-1573","SITE":"AFETR","CENTER_NAME":"EARTH","DECAY_DATE":null,"REV_AT_EPOCH":"13145","CLASSIFICATION_TYPE":"U","INCLINATION":"53.0547","OBJECT_ID":"2020-055AL","REF_FRAME":"TEME","OBJECT_TYPE":"PAYLOAD","PERIOD":"95.593","EPOCH":"2022-12-17T12:33:09.506016","TIME_SYSTEM":"UTC","RA_OF_ASC_NODE":"5.6300","PERIAPSIS":"545.836","ECCENTRICITY":"0.00020630","GP_ID":"220754388","COUNTRY_CODE":"US","ELEMENT_SET_NO":"999","MEAN_ANOMALY":"315.4674","ARG_OF_PERICENTER":"44.6481","MEAN_MOTION":"15.06383253","TLE_LINE2":"2 46061  53.0547   5.6300 0002063  44.6481 315.4674 15.06383253131455"},{"PERIOD":"95.594","REF_FRAME":"TEME","OBJECT_TYPE":"PAYLOAD","EPOCH":"2022-12-17T13:20:55.517568","SITE":"AFETR","REV_AT_EPOCH":"13142","DECAY_DATE":null,"CENTER_NAME":"EARTH","CLASSIFICATION_TYPE":"U","INCLINATION":"53.0547","OBJECT_ID":"2020-055AM","EPHEMERIS_TYPE":"0","FILE":"3707070","TLE_LINE1":"1 46062U 20055AM  22351.55619812  .00015470  00000-0  10558-2 0  9998","MEAN_MOTION_DOT":"0.00015470","RCS_SIZE":"LARGE","OBJECT_NAME":"STARLINK-1574","MEAN_ELEMENT_THEORY":"SGP4","MEAN_MOTION_DDOT":"0.0000000000000","NORAD_CAT_ID":"46062","APOAPSIS":"548.682","SEMIMAJOR_AXIS":"6925.417","LAUNCH_DATE":"2020-08-07","BSTAR":"0.00105580000000","MEAN_ANOMALY":"306.0872","MEAN_MOTION":"15.06377677","TLE_LINE2":"2 46062  53.0547   5.4555 0002022  54.0304 306.0872 15.06377677131426","ARG_OF_PERICENTER":"54.0304","GP_ID":"220753137","COUNTRY_CODE":"US","ELEMENT_SET_NO":"999","ECCENTRICITY":"0.00020220","TIME_SYSTEM":"UTC","RA_OF_ASC_NODE":"5.4555","PERIAPSIS":"545.882"},{"ELEMENT_SET_NO":"999","GP_ID":"220702227","COUNTRY_CODE":"US","MEAN_MOTION":"15.06395829","TLE_LINE2":"2 46063  53.0552   5.7833 0001811  55.9563 304.1598 15.06395829131442","ARG_OF_PERICENTER":"55.9563","MEAN_ANOMALY":"304.1598","RA_OF_ASC_NODE":"5.7833","PERIAPSIS":"545.972","TIME_SYSTEM":"UTC","ECCENTRICITY":"0.00018110","INCLINATION":"53.0552","OBJECT_ID":"2020-055AN","SITE":"AFETR","DECAY_DATE":null,"CENTER_NAME":"EARTH","REV_AT_EPOCH":"13144","CLASSIFICATION_TYPE":"U","PERIOD":"95.592","OBJECT_TYPE":"PAYLOAD","REF_FRAME":"TEME","EPOCH":"2022-12-17T11:40:03.658944","APOAPSIS":"548.481","SEMIMAJOR_AXIS":"6925.361","BSTAR":"0.00010441000000","LAUNCH_DATE":"2020-08-07","MEAN_ELEMENT_THEORY":"SGP4","MEAN_MOTION_DDOT":"0.0000000000000","NORAD_CAT_ID":"46063","TLE_LINE1":"1 46063U 20055AN  22351.48615346  .00001274  00000-0  10441-3 0  9998","MEAN_MOTION_DOT":"0.00001274","RCS_SIZE":"LARGE","OBJECT_NAME":"STARLINK-1577","EPHEMERIS_TYPE":"0","FILE":"3705911"},{"SITE":"AFETR","CLASSIFICATION_TYPE":"U","DECAY_DATE":null,"REV_AT_EPOCH":"13145","CENTER_NAME":"EARTH","INCLINATION":"53.0561","OBJECT_ID":"2020-055AP","OBJECT_TYPE":"PAYLOAD","REF_FRAME":"TEME","PERIOD":"95.592","EPOCH":"2022-12-17T12:27:49.768992","MEAN_ELEMENT_THEORY":"SGP4","NORAD_CAT_ID":"46064","MEAN_MOTION_DDOT":"0.0000000000000","APOAPSIS":"548.527","BSTAR":"-0.00000567690000","LAUNCH_DATE":"2020-08-07","SEMIMAJOR_AXIS":"6925.353","FILE":"3707070","EPHEMERIS_TYPE":"0","RCS_SIZE":"LARGE","MEAN_MOTION_DOT":"-0.00000366","TLE_LINE1":"1 46064U 20055AP  22351.51932603 -.00000366  00000-0 -56769-5 0  9999","OBJECT_NAME":"STARLINK-1583","GP_ID":"220754637","COUNTRY_CODE":"US","ELEMENT_SET_NO":"999","MEAN_ANOMALY":"319.5066","ARG_OF_PERICENTER":"40.6063","TLE_LINE2":"2 46064  53.0561   5.6358 0001890  40.6063 319.5066 15.06398505131452","MEAN_MOTION":"15.06398505","TIME_SYSTEM":"UTC","RA_OF_ASC_NODE":"5.6358","PERIAPSIS":"545.909","ECCENTRICITY":"0.00018900"},{"SITE":"AFETR","CLASSIFICATION_TYPE":"U","DECAY_DATE":null,"REV_AT_EPOCH":"13174","CENTER_NAME":"EARTH","INCLINATION":"53.0560","OBJECT_ID":"2020-055AQ","REF_FRAME":"TEME","OBJECT_TYPE":"PAYLOAD","PERIOD":"95.593","EPOCH":"2022-12-17T17:05:08.318976","MEAN_ELEMENT_THEORY":"SGP4","NORAD_CAT_ID":"46065","MEAN_MOTION_DDOT":"0.0000000000000","APOAPSIS":"548.610","BSTAR":"-0.00000544660000","LAUNCH_DATE":"2020-08-07","SEMIMAJOR_AXIS":"6925.379","FILE":"3707070","EPHEMERIS_TYPE":"0","RCS_SIZE":"LARGE","MEAN_MOTION_DOT":"-0.00000363","TLE_LINE1":"1 46065U 20055AQ  22351.71190184 -.00000363  00000-0 -54466-5 0  9991","OBJECT_NAME":"STARLINK-1515","GP_ID":"220754888","COUNTRY_CODE":"US","ELEMENT_SET_NO":"999","MEAN_ANOMALY":"314.7819","ARG_OF_PERICENTER":"45.3330","TLE_LINE2":"2 46065  53.0560 344.7812 0001972  45.3330 314.7819 15.06389974131749","MEAN_MOTION":"15.06389974","TIME_SYSTEM":"UTC","RA_OF_ASC_NODE":"344.7812","PERIAPSIS":"545.879","ECCENTRICITY":"0.00019720"}];
